NORAD_CAT_ID,OBJECT_NAME,OBJECT_TYPE,EPOCH,MEAN_MOTION,ECCENTRICITY,INCLINATION,RA_OF_ASC_NODE,ARG_OF_PERICENTER,MEAN_ANOMALY,BSTAR,MEAN_MOTION_DOT,MEAN_MOTION_DDOT,TLE_LINE0,TLE_LINE1,TLE_LINE2,SEMIMAJOR_AXIS,PERIOD,APOGEE,PERIGEE,DECAYED
53242.0,STARLINK-4056,PAYLOAD,2023-02-22 17:24:13,15.08860902,9.42e-05,53.2151,146.425,70.5998,289.5096,0.0020577,0.00032631,0.0,0 STARLINK-4056,1 53242U 22086A   23053.72515471  .00032631  00000-0  20577-2 0  9997,2 53242  53.2151 146.4250 0000942  70.5998 289.5096 15.08860902 33093,6917.817,95.436,540.333,539.03,0.0
53242.0,STARLINK-4056,PAYLOAD,2023-02-23 04:31:55,15.08844266,0.0001246,53.2141,144.342,104.8006,255.3124,0.0010219,0.00016015,0.0,0 STARLINK-4056,1 53242U 22086A   23054.18883876  .00016015  00000-0  10219-2 0  9995,2 53242  53.2141 144.3420 0001246 104.8006 255.3124 15.08844266 33163,6917.867,95.437,540.594,538.87,0.0
53242.0,STARLINK-4056,PAYLOAD,2023-02-23 10:53:28,15.08844259,0.000109,53.2152,143.1533,105.573,254.5383,0.0014106,0.00022236,0.0,0 STARLINK-4056,1 53242U 22086A   23054.45380024  .00022236  00000-0  14106-2 0  9993,2 53242  53.2152 143.1533 0001090 105.5730 254.5383 15.08844259 33706,6917.867,95.437,540.486,538.978,0.0
53242.0,STARLINK-4056,PAYLOAD,2023-02-23 17:15:00,15.08856846,0.0001122,53.2154,141.9644,102.6322,257.4796,0.0016352,0.00025844,0.0,0 STARLINK-4056,1 53242U 22086A   23054.71875848  .00025844  00000-0  16352-2 0  9998,2 53242  53.2154 141.9644 0001122 102.6322 257.4796 15.08856846 33747,6917.829,95.436,540.47,538.918,0.0
53242.0,STARLINK-4056,PAYLOAD,2023-02-24 05:58:06,15.08848318,0.0001754,53.2157,139.5855,120.4222,239.6943,0.00094229,0.00014744,0.0,0 STARLINK-4056,1 53242U 22086A   23055.24868149  .00014744  00000-0  94229-3 0  9990,2 53242  53.2157 139.5855 0001754 120.4222 239.6943 15.08848318 33320,6917.855,95.437,540.933,538.507,0.0
53242.0,STARLINK-4056,PAYLOAD,2023-02-24 10:44:15,15.08846959,0.0001416,53.216,138.6943,109.7467,250.3678,0.00055088,8.492e-05,0.0,0 STARLINK-4056,1 53242U 22086A   23055.44740127  .00008492  00000-0  55088-3 0  9990,2 53242  53.2160 138.6943 0001416 109.7467 250.3678 15.08846959 33850,6917.859,95.437,540.704,538.745,0.0
53242.0,STARLINK-4056,PAYLOAD,2023-02-24 15:30:24,15.0885476,0.0001402,53.217,137.8024,119.7496,240.3636,0.0008943,0.00013979,0.0,0 STARLINK-4056,1 53242U 22086A   23055.64611885  .00013979  00000-0  89430-3 0  9994,2 53242  53.2170 137.8024 0001402 119.7496 240.3636 15.08854760 33885,6917.835,95.437,540.67,538.73,0.0
53242.0,STARLINK-4056,PAYLOAD,2023-02-24 21:51:57,15.08834311,0.000106,53.216,136.6108,108.5289,251.5819,2.2088e-05,6.4e-07,0.0,0 STARLINK-4056,1 53242U 22086A   23055.91108307  .00000064  00000-0  22088-4 0  9992,2 53242  53.2160 136.6108 0001060 108.5289 251.5819 15.08834311 33427,6917.898,95.438,540.496,539.029,0.0
53242.0,STARLINK-4056,PAYLOAD,2023-02-25 13:45:49,15.08844335,0.000117,53.2158,133.6371,115.381,244.7303,0.00068697,0.00010663,0.0,0 STARLINK-4056,1 53242U 22086A   23056.57348470  .00010663  00000-0  68697-3 0  9993,2 53242  53.2158 133.6371 0001170 115.3810 244.7303 15.08844335 34027,6917.867,95.437,540.542,538.923,0.0
53242.0,STARLINK-4056,PAYLOAD,2023-02-25 16:56:35,15.08850286,0.0001345,53.2163,133.042,115.519,244.5941,0.00090101,0.00014085,0.0,0 STARLINK-4056,1 53242U 22086A   23056.70596411  .00014085  00000-0  90101-3 0  9995,2 53242  53.2163 133.0420 0001345 115.5190 244.5941 15.08850286 33543,6917.849,95.437,540.644,538.783,0.0
53242.0,STARLINK-4056,PAYLOAD,2023-02-25 21:42:44,15.0884191,0.0001187,53.2156,132.1511,107.7652,252.347,0.00066159,0.00010257,0.0,0 STARLINK-4056,1 53242U 22086A   23056.90468737  .00010257  00000-0  66159-3 0  9999,2 53242  53.2156 132.1511 0001187 107.7652 252.3470 15.08841910 34073,6917.875,95.437,540.561,538.918,0.0
53242.0,STARLINK-4056,PAYLOAD,2023-02-26 10:25:49,15.08857422,0.000125,53.215,129.7727,104.936,255.177,0.0013873,0.0002187,0.0,0 STARLINK-4056,1 53242U 22086A   23057.43460483  .00021870  00000-0  13873-2 0  9995,2 53242  53.2150 129.7727 0001250 104.9360 255.1770 15.08857422 34152,6917.827,95.436,540.557,538.827,0.0
53242.0,STARLINK-4056,PAYLOAD,2023-02-26 15:11:58,15.08868992,0.0001242,53.215,128.8806,98.3846,261.7287,0.0017076,0.00027015,0.0,0 STARLINK-4056,1 53242U 22086A   23057.63332139  .00027015  00000-0  17076-2 0  9999,2 53242  53.2150 128.8806 0001242  98.3846 261.7287 15.08868992 33683,6917.792,95.436,540.516,538.798,0.0
53242.0,STARLINK-4056,PAYLOAD,2023-02-26 21:33:31,15.08846016,0.000183,53.2151,127.69,80.4964,279.6235,0.00074339,0.00011565,0.0,0 STARLINK-4056,1 53242U 22086A   23057.89828667  .00011565  00000-0  74339-3 0  9992,2 53242  53.2151 127.6900 0001830  80.4964 279.6235 15.08846016 34227,6917.862,95.437,540.993,538.461,0.0
53242.0,STARLINK-4056,PAYLOAD,2023-02-27 03:55:04,15.08848336,0.0001992,53.2132,126.503,83.8127,276.3092,0.0011421,0.0001794,0.0,0 STARLINK-4056,1 53242U 22086A   23058.16324732  .00017940  00000-0  11421-2 0  9992,2 53242  53.2132 126.5030 0001992  83.8127 276.3092 15.08848336 33765,6917.855,95.437,541.098,538.342,0.0
53242.0,STARLINK-4056,PAYLOAD,2023-02-27 07:05:50,15.0884499,0.0001072,53.2145,125.9065,93.8808,266.2307,0.0016988,0.00026855,0.0,0 STARLINK-4056,1 53242U 22086A   23058.29572733  .00026855  00000-0  16988-2 0  9990,2 53242  53.2145 125.9065 0001072  93.8808 266.2307 15.08844990 34283,6917.865,95.437,540.472,538.989,0.0
53242.0,STARLINK-4056,PAYLOAD,2023-02-27 13:27:23,15.08905336,0.0001087,53.2146,124.7174,81.036,279.0755,0.0064254,0.00103665,0.0,0 STARLINK-4056,1 53242U 22086A   23058.56068540  .00103665  00000-0  64254-2 0  9990,2 53242  53.2146 124.7174 0001087  81.0360 279.0755 15.08905336 33820,6917.681,95.433,540.298,538.794,0.0
53242.0,STARLINK-4056,PAYLOAD,2023-02-27 21:24:18,15.08870859,0.0001271,53.2153,123.2297,91.8215,268.2922,0.0023134,0.00036753,0.0,0 STARLINK-4056,1 53242U 22086A   23058.89188396  .00036753  00000-0  23134-2 0  9993,2 53242  53.2153 123.2297 0001271  91.8215 268.2922 15.08870859 34379,6917.786,95.436,540.53,538.772,0.0
53242.0,STARLINK-4056,PAYLOAD,2023-02-28 03:45:51,15.08874668,0.0001788,53.2156,122.0419,89.1544,270.9653,0.0019013,0.0003013,0.0,0 STARLINK-4056,1 53242U 22086A   23059.15684202  .00030130  00000-0  19013-2 0  9994,2 53242  53.2156 122.0419 0001788  89.1544 270.9653 15.08874668 33915,6917.774,95.435,540.876,538.403,0.0
53242.0,STARLINK-4056,PAYLOAD,2023-02-28 11:42:46,15.08875857,0.0001348,53.2148,120.5556,89.0611,271.0536,0.0012737,0.00020061,0.0,0 STARLINK-4056,1 53242U 22086A   23059.48803452  .00020061  00000-0  12737-2 0  9998,2 53242  53.2148 120.5556 0001348  89.0611 271.0536 15.08875857 34461,6917.771,95.435,540.568,538.703,0.0
53242.0,STARLINK-4056,PAYLOAD,2023-02-28 13:18:09,15.08881745,0.0001326,53.215,120.2576,90.3151,269.7993,0.0012275,0.00019324,0.0,0 STARLINK-4056,1 53242U 22086A   23059.55427171  .00019324  00000-0  12275-2 0  9993,2 53242  53.2150 120.2576 0001326  90.3151 269.7993 15.08881745 33972,6917.753,95.435,540.535,538.701,0.0
53242.0,STARLINK-4056,PAYLOAD,2023-02-28 21:15:05,15.08832748,0.0001977,53.216,118.7694,74.8407,285.2803,-0.00015846,-2.809e-05,0.0,0 STARLINK-4056,1 53242U 22086A   23059.88548240 -.00002809  00000-0 -15846-3 0  9990,2 53242  53.2160 118.7694 0001977  74.8407 285.2803 15.08832748 34523,6917.903,95.438,541.135,538.4,0.0
53242.0,STARLINK-4056,PAYLOAD,2023-03-01 09:58:12,15.08799813,0.0001647,53.2155,116.3901,79.1096,281.0081,0.0011844,0.00018591,0.0,0 STARLINK-4056,1 53242U 22086A   23060.41541852  .00018591  00000-0  11844-2 0  9999,2 53242  53.2155 116.3901 0001647  79.1096 281.0081 15.08799813 34109,6918.003,95.44,541.008,538.729,0.0
53242.0,STARLINK-4056,PAYLOAD,2023-03-01 21:05:55,15.08815525,0.0001844,53.2158,114.3091,75.5722,284.5475,0.0016699,0.00026371,0.0,0 STARLINK-4056,1 53242U 22086A   23060.87911121  .00026371  00000-0  16699-2 0  9997,2 53242  53.2158 114.3091 0001844  75.5722 284.5475 15.08815525 34671,6917.955,95.439,541.096,538.545,0.0
53242.0,STARLINK-4056,PAYLOAD,2023-03-02 14:35:09,15.08862819,0.0001837,53.2158,111.038,75.2722,284.8474,0.0019512,0.00030922,0.0,0 STARLINK-4056,1 53242U 22086A   23061.60775002  .00030922  00000-0  19512-2 0  9999,2 53242  53.2158 111.0380 0001837  75.2722 284.8474 15.08862819 34282,6917.811,95.436,540.946,538.405,0.0
53242.0,STARLINK-4056,PAYLOAD,2023-03-03 08:04:23,15.08882387,0.0002014,53.2168,107.7657,80.0758,280.0461,0.0016257,0.0002571,0.0,0 STARLINK-4056,1 53242U 22086A   23062.33637836  .00025710  00000-0  16257-2 0  9994,2 53242  53.2168 107.7657 0002014  80.0758 280.0461 15.08882387 34391,6917.751,95.435,541.009,538.223,0.0
53242.0,STARLINK-4056,PAYLOAD,2023-03-03 09:39:46,15.08885019,0.0002055,53.2169,107.469,76.3347,283.7874,0.0016057,0.00025391,0.0,0 STARLINK-4056,1 53242U 22086A   23062.40261661  .00025391  00000-0  16057-2 0  9994,2 53242  53.2169 107.4690 0002055  76.3347 283.7874 15.08885019 34903,6917.743,95.435,541.029,538.186,0.0
53242.0,STARLINK-4056,PAYLOAD,2023-03-03 14:25:54,15.0890021,0.0002034,53.2171,106.5756,80.3218,279.8004,0.0018351,0.00029087,0.0,0 STARLINK-4056,1 53242U 22086A   23062.60132833  .00029087  00000-0  18351-2 0  9999,2 53242  53.2171 106.5756 0002034  80.3218 279.8004 15.08900210 34933,6917.696,95.434,540.968,538.154,0.0
53242.0,STARLINK-4056,PAYLOAD,2023-03-04 04:44:23,15.08836085,0.0001972,53.2171,103.8967,139.7837,220.3301,0.00041019,6.245e-05,0.0,0 STARLINK-4056,1 53242U 22086A   23063.19749005  .00006245  00000-0  41019-3 0  9998,2 53242  53.2171 103.8967 0001972 139.7837 220.3301 15.08836085 34527,6917.892,95.438,541.122,538.393,0.0
53242.0,STARLINK-4056,PAYLOAD,2023-03-04 12:41:18,15.08862363,0.0001711,53.2168,102.4158,97.8063,262.3123,0.0010512,0.00016492,0.0,0 STARLINK-4056,1 53242U 22086A   23063.52868789  .00016492  00000-0  10512-2 0  9994,2 53242  53.2168 102.4158 0001711  97.8063 262.3123 15.08862363 34577,6917.812,95.436,540.861,538.493,0.0
